STARLINK-2022           
1 47643U 21012Z   24088.77895332  .00004632  00000+0  32951-3 0  9993
2 47643  53.0569   3.0200 0001581 102.0906 258.0260 15.06416134172590
